NORAD_CAT_ID,OBJECT_NAME,OBJECT_TYPE,EPOCH,MEAN_MOTION,ECCENTRICITY,INCLINATION,RA_OF_ASC_NODE,ARG_OF_PERICENTER,MEAN_ANOMALY,BSTAR,MEAN_MOTION_DOT,MEAN_MOTION_DDOT,TLE_LINE0,TLE_LINE1,TLE_LINE2,SEMIMAJOR_AXIS,PERIOD,APOGEE,PERIGEE,DECAYED
56451.0,STARLINK-5985,PAYLOAD,2024-05-03 23:00:39,14.9832541,0.0002547,70.0028,45.8717,245.8544,114.2349,-6.6587e-05,-8.87e-06,0.0,0 STARLINK-5985,1 56451U 23064D   24124.95878940 -.00000887  00000-0 -66587-4 0  9990,2 56451  70.0028  45.8717 0002547 245.8544 114.2349 14.98325410 54170,6950.207,96.107,573.842,570.302,0.0
56451.0,STARLINK-5985,PAYLOAD,2024-05-04 03:49:04,14.98325262,0.000256,70.002,45.3625,260.9734,99.1135,-0.0002628,-3.227e-05,0.0,0 STARLINK-5985,1 56451U 23064D   24125.15907535 -.00003227  00000-0 -26280-3 0  9992,2 56451  70.0020  45.3625 0002560 260.9734  99.1135 14.98325262 54561,6950.208,96.107,573.852,570.293,0.0
56451.0,STARLINK-5985,PAYLOAD,2024-05-04 21:26:31,14.98337409,0.0002673,70.0014,43.5106,261.3758,98.7098,1.2549e-05,5.7e-07,0.0,0 STARLINK-5985,1 56451U 23064D   24125.89342173  .00000057  00000-0  12549-4 0  9994,2 56451  70.0014  43.5106 0002673 261.3758  98.7098 14.98337409 54675,6950.17,96.107,573.893,570.177,0.0
56451.0,STARLINK-5985,PAYLOAD,2024-05-05 05:27:11,14.9833464,0.000292,70.0013,42.6688,264.4768,95.6058,8.5143e-05,9.23e-06,0.0,0 STARLINK-5985,1 56451U 23064D   24126.22722108  .00000923  00000-0  85143-4 0  9994,2 56451  70.0013  42.6688 0002920 264.4768  95.6058 14.98334640 54361,6950.179,96.107,574.073,570.014,0.0
56451.0,STARLINK-5985,PAYLOAD,2024-05-05 21:28:32,14.9832485,0.0002859,70.0008,40.9844,262.0991,97.9844,0.00019145,2.192e-05,0.0,0 STARLINK-5985,1 56451U 23064D   24126.89482388  .00002192  00000-0  19145-3 0  9998,2 56451  70.0008  40.9844 0002859 262.0991  97.9844 14.98324850 54824,6950.209,96.107,574.061,570.087,0.0
56451.0,STARLINK-5985,PAYLOAD,2024-05-06 03:53:04,14.98333243,0.0002841,70.0008,40.3112,263.242,96.8416,0.00022864,2.636e-05,0.0,0 STARLINK-5985,1 56451U 23064D   24127.16185867  .00002636  00000-0  22864-3 0  9996,2 56451  70.0008  40.3112 0002841 263.2420  96.8416 14.98333243 54860,6950.183,96.107,574.022,570.073,0.0
56451.0,STARLINK-5985,PAYLOAD,2024-05-06 11:53:45,14.98333415,0.0002913,70.0007,39.4686,263.4257,96.6571,0.00013539,1.523e-05,0.0,0 STARLINK-5985,1 56451U 23064D   24127.49566043  .00001523  00000-0  13539-3 0  9994,2 56451  70.0007  39.4686 0002913 263.4257  96.6571 14.98333415 54551,6950.182,96.107,574.072,570.023,0.0
56451.0,STARLINK-5985,PAYLOAD,2024-05-06 21:30:33,14.98337806,0.0002832,70.0007,38.4588,263.9343,96.1494,9.855e-05,1.083e-05,0.0,0 STARLINK-5985,1 56451U 23064D   24127.89621690  .00001083  00000-0  98550-4 0  9996,2 56451  70.0007  38.4588 0002832 263.9343  96.1494 14.98337806 54616,6950.169,96.106,574.002,570.065,0.0
56451.0,STARLINK-5985,PAYLOAD,2024-05-07 03:55:05,14.98340866,0.000287,70.0008,37.7856,263.9529,96.1303,0.00015637,1.774e-05,0.0,0 STARLINK-5985,1 56451U 23064D   24128.16325274  .00001774  00000-0  15637-3 0  9997,2 56451  70.0008  37.7856 0002870 263.9529  96.1303 14.98340866 55019,6950.159,96.106,574.019,570.03,0.0
56451.0,STARLINK-5985,PAYLOAD,2024-05-07 21:32:34,14.98327047,0.0002869,70.0008,35.936,265.9472,94.1359,-9.1597e-05,-1.186e-05,0.0,0 STARLINK-5985,1 56451U 23064D   24128.89762597 -.00001186  00000-0 -91597-4 0  9999,2 56451  70.0008  35.9360 0002869 265.9472  94.1359 14.98327047 55123,6950.202,96.107,574.061,570.073,0.0
56451.0,STARLINK-5985,PAYLOAD,2024-05-08 03:57:07,14.98327163,0.0002933,70.0005,35.2611,266.7712,93.3112,-9.287e-05,-1.201e-05,0.0,0 STARLINK-5985,1 56451U 23064D   24129.16466666 -.00001201  00000-0 -92870-4 0  9991,2 56451  70.0005  35.2611 0002933 266.7712  93.3112 14.98327163 54801,6950.202,96.107,574.105,570.028,0.0
56451.0,STARLINK-5985,PAYLOAD,2024-05-08 21:34:35,14.98333356,0.0002934,70.0008,33.4107,269.749,90.3333,1.1897e-05,4.9e-07,0.0,0 STARLINK-5985,1 56451U 23064D   24129.89902037  .00000049  00000-0  11897-4 0  9995,2 56451  70.0008  33.4107 0002934 269.7490  90.3333 14.98333356 55276,6950.183,96.107,574.087,570.008,0.0
56451.0,STARLINK-5985,PAYLOAD,2024-05-09 03:59:06,14.98342735,0.0002958,70.0005,32.7374,266.4174,93.6647,8.2771e-05,8.95e-06,0.0,0 STARLINK-5985,1 56451U 23064D   24130.16605218  .00000895  00000-0  82771-4 0  9996,2 56451  70.0005  32.7374 0002958 266.4174  93.6647 14.98342735 55310,6950.154,96.106,574.074,569.963,0.0
56451.0,STARLINK-5985,PAYLOAD,2024-05-09 10:23:39,14.98338396,0.0002867,70.0008,32.0634,268.5368,91.5463,2.028e-05,1.49e-06,0.0,0 STARLINK-5985,1 56451U 23064D   24130.43309554  .00000149  00000-0  20280-4 0  9999,2 56451  70.0008  32.0634 0002867 268.5368  91.5463 14.98338396 54996,6950.167,96.106,574.025,570.039,0.0
56451.0,STARLINK-5985,PAYLOAD,2024-05-09 20:00:28,14.98328355,0.0002768,70.001,31.054,265.4193,94.6649,0.00020368,2.338e-05,0.0,0 STARLINK-5985,1 56451U 23064D   24130.83365965  .00002338  00000-0  20368-3 0  9999,2 56451  70.0010  31.0540 0002768 265.4193  94.6649 14.98328355 55418,6950.198,96.107,573.987,570.139,0.0
56451.0,STARLINK-5985,PAYLOAD,2024-05-09 21:36:36,14.98328477,0.000278,70.0011,30.8857,265.4562,94.6279,0.00020293,2.329e-05,0.0,0 STARLINK-5985,1 56451U 23064D   24130.90041997  .00002329  00000-0  20293-3 0  9990,2 56451  70.0011  30.8857 0002780 265.4562  94.6279 14.98328477 55066,6950.198,96.107,573.995,570.13,0.0
56451.0,STARLINK-5985,PAYLOAD,2024-05-10 02:25:00,14.98315804,0.0003131,70.0013,30.3805,272.7695,87.3106,0.00047956,5.632e-05,0.0,0 STARLINK-5985,1 56451U 23064D   24131.10070365  .00005632  00000-0  47956-3 0  9999,2 56451  70.0013  30.3805 0003131 272.7695  87.3106 14.98315804 55456,6950.237,96.108,574.278,569.926,0.0
56451.0,STARLINK-5985,PAYLOAD,2024-05-10 10:25:40,14.98330467,0.0002812,70.0015,29.5381,269.9591,90.1246,0.00016174,1.837e-05,0.0,0 STARLINK-5985,1 56451U 23064D   24131.43450071  .00001837  00000-0  16174-3 0  9992,2 56451  70.0015  29.5381 0002812 269.9591  90.1246 14.98330467 55500,6950.191,96.107,574.011,570.102,0.0
56451.0,STARLINK-5985,PAYLOAD,2024-05-10 21:38:37,14.98334632,0.0002788,70.0012,28.3611,264.6493,95.4348,1.327e-05,6.5e-07,0.0,0 STARLINK-5985,1 56451U 23064D   24131.90182028  .00000065  00000-0  13270-4 0  9995,2 56451  70.0012  28.3611 0002788 264.6493  95.4348 14.98334632 55212,6950.179,96.107,573.981,570.106,0.0
56451.0,STARLINK-5985,PAYLOAD,2024-05-11 02:26:59,14.98359305,0.0003052,70.0005,27.8558,252.8699,107.2126,0.00027402,3.181e-05,0.0,0 STARLINK-5985,1 56451U 23064D   24132.10208146  .00003181  00000-0  27402-3 0  9991,2 56451  70.0005  27.8558 0003052 252.8699 107.2126 14.98359305 55603,6950.102,96.105,574.088,569.846,0.0
56451.0,STARLINK-5985,PAYLOAD,2024-05-11 10:27:38,14.98382734,0.0002746,70.0016,27.014,265.3009,94.7836,0.00056734,6.692e-05,0.0,0 STARLINK-5985,1 56451U 23064D   24132.43585699  .00006692  00000-0  56734-3 0  9998,2 56451  70.0016  27.0140 0002746 265.3009  94.7836 14.98382734 55652,6950.03,96.104,573.803,569.986,0.0
56451.0,STARLINK-5985,PAYLOAD,2024-05-11 21:40:37,14.98315239,0.0002541,70.0026,25.8361,270.5771,89.5097,-0.00054375,-6.572e-05,0.0,0 STARLINK-5985,1 56451U 23064D   24132.90320998 -.00006572  00000-0 -54375-3 0  9997,2 56451  70.0026  25.8361 0002541 270.5771  89.5097 14.98315239 55726,6950.239,96.108,573.87,570.337,0.0
56451.0,STARLINK-5985,PAYLOAD,2024-05-11 23:16:45,14.98320566,0.0002894,70.0018,25.6681,269.5922,90.4905,-0.00044236,-5.366e-05,0.0,0 STARLINK-5985,1 56451U 23064D   24132.96996682 -.00005366  00000-0 -44236-3 0  9997,2 56451  70.0018  25.6681 0002894 269.5922  90.4905 14.98320566 55376,6950.222,96.108,574.098,570.076,0.0
56451.0,STARLINK-5985,PAYLOAD,2024-05-12 10:29:44,14.98273619,0.0002496,70.0027,24.4891,274.236,85.8514,-0.0012027,-0.00014393,0.0,0 STARLINK-5985,1 56451U 23064D   24133.43731875 -.00014393  00000-0 -12027-2 0  9993,2 56451  70.0027  24.4891 0002496 274.2360  85.8514 14.98273619 55801,6950.367,96.111,573.967,570.497,0.0
56451.0,STARLINK-5985,PAYLOAD,2024-05-12 21:42:40,14.9831358,0.000319,70.0016,23.3113,266.0106,94.0688,-9.2198e-05,-1.192e-05,0.0,0 STARLINK-5985,1 56451U 23064D   24133.90463344 -.00001192  00000-0 -92198-4 0  9990,2 56451  70.0016  23.3113 0003190 266.0106  94.0688 14.98313580 55876,6950.244,96.108,574.326,569.892,0.0
56451.0,STARLINK-5985,PAYLOAD,2024-05-12 23:18:48,14.98317269,0.0002894,70.0023,23.1432,255.8982,104.1855,-4.6237e-05,-6.44e-06,0.0,0 STARLINK-5985,1 56451U 23064D   24133.97139221 -.00000644  00000-0 -46237-4 0  9995,2 56451  70.0023  23.1432 0002894 255.8982 104.1855 14.98317269 55523,6950.232,96.108,574.109,570.086,0.0
56451.0,STARLINK-5985,PAYLOAD,2024-05-13 02:31:04,14.98315761,0.000303,70.0019,22.8061,258.4925,101.5894,-4.9286e-05,-6.81e-06,0.0,0 STARLINK-5985,1 56451U 23064D   24134.10491472 -.00000681  00000-0 -49286-4 0  9998,2 56451  70.0019  22.8061 0003030 258.4925 101.5894 14.98315761 55542,6950.237,96.108,574.208,569.996,0.0
56451.0,STARLINK-5985,PAYLOAD,2024-05-14 02:33:05,14.98316451,0.0003136,70.0003,20.2802,262.0453,98.035,0.00055579,6.543e-05,0.0,0 STARLINK-5985,1 56451U 23064D   24135.10630854  .00006543  00000-0  55579-3 0  9990,2 56451  70.0003  20.2802 0003136 262.0453  98.0350 14.98316451 56055,6950.235,96.108,574.279,569.92,0.0
56451.0,STARLINK-5985,PAYLOAD,2024-05-14 21:46:42,14.98309949,0.000353,70.0,18.2603,254.8932,105.1836,0.0011753,0.00013952,0.0,0 STARLINK-5985,1 56451U 23064D   24135.90743446  .00013952  00000-0  11753-2 0  9997,2 56451  70.0000  18.2603 0003530 254.8932 105.1836 14.98309949 55813,6950.255,96.108,574.573,569.666,0.0
56451.0,STARLINK-5985,PAYLOAD,2024-05-15 02:35:06,14.98316486,0.0002481,70.0029,17.7555,258.7582,101.3299,0.0013029,0.00015482,0.0,0 STARLINK-5985,1 56451U 23064D   24136.10771396  .00015482  00000-0  13029-2 0  9993,2 56451  70.0029  17.7555 0002481 258.7582 101.3299 14.98316486 56201,6950.235,96.108,573.824,570.375,0.0
